{"type": "FeatureCollection", "features": [ {"type": "Feature", "properties": {"norad_id": 66707, "name": "FLOCK 4H-4", "group": "last-30-days", "lat": 65.78793884988538, "lon": 55.22251118073332, "alt_km": 510.1485891688235, "timestamp": "2025-12-26T14:28:46.395077+00:00", "meta": {"OBJECT_NAME": "FLOCK 4H-4", "OBJECT_ID": "2025-276AT", "EPOCH": "2025-12-26T04:41:19.428000", "MEAN_MOTION": 15.17252172, "ECCENTRICITY": 0.00035906, "INCLINATION": 97.4422, "RA_OF_ASC_NODE": 71.7214, "ARG_OF_PERICENTER": 235.4716, "MEAN_ANOMALY": 124.6179, "EPHEMERIS_TYPE": 0, "CLASSIFICATION_TYPE": "U", "NORAD_CAT_ID": 66707, "ELEMENT_SET_NO": 999, "REV_AT_EPOCH": 416, "BSTAR": 0.00047986846, "MEAN_MOTION_DOT": 9.49e-05, "MEAN_MOTION_DDOT": 0}, "tle": {"line1": "1 66707U 25276AT  25360.19536375  .00009490  00000+0  47987-3 0  9992", "line2": "2 66707  97.4422  71.7214 0003590 235.4716 124.6179 15.17252172  4167"}}, "geometry": {"type": "Point", "coordinates": [55.22251118073332, 65.78793884988538]}}, {"type": "Feature", "properties": {"norad_id": 66708, "name": "FLOCK 4H-5", "group": "last-30-days", "lat": 17.414491271515438, "lon": -105.505928235657, "alt_km": 511.0435285403664, "timestamp": "2025-12-26T14:28:46.395087+00:00", "meta": {"OBJECT_NAME": "FLOCK 4H-5", "OBJECT_ID": "2025-276AU", "EPOCH": "2025-12-26T05:51:28.483488", "MEAN_MOTION": 15.18211293, "ECCENTRICITY": 0.00013464, "INCLINATION": 97.4375, "RA_OF_ASC_NODE": 71.7926, "ARG_OF_PERICENTER": 126.9648, "MEAN_ANOMALY": 233.171, "EPHEMERIS_TYPE": 0, "CLASSIFICATION_TYPE": "U", "NORAD_CAT_ID": 66708, "ELEMENT_SET_NO": 999, "REV_AT_EPOCH": 417, "BSTAR": 0.00044883783, "MEAN_MOTION_DOT": 9.119e-05, "MEAN_MOTION_DDOT": 0}, "tle": {"line1": "1 66708U 25276AU  25360.24407967  .00009119  00000+0  44884-3 0  9994", "line2": "2 66708  97.4375  71.7926 0001346 126.9648 233.1710 15.18211293  4178"}}, "geometry": {"type": "Point", "coordinates": [-105.505928235657, 17.414491271515438]}}, {"type": "Feature", "properties": {"norad_id": 66709, "name": "FLOCK 4H-6", "group": "last-30-days", "lat": 40.59861422213777, "lon": -101.4103251955555, "alt_km": 507.6727731279907, "timestamp": "2025-12-26T14:28:46.395098+00:00", "meta": {"OBJECT_NAME": "FLOCK 4H-6", "OBJECT_ID": "2025-276AV", "EPOCH": "2025-12-26T05:57:32.976576", "MEAN_MOTION": 15.17956688, "ECCENTRICITY": 0.00028886, "INCLINATION": 97.4425, "RA_OF_ASC_NODE": 71.8078, "ARG_OF_PERICENTER": 193.3768, "MEAN_ANOMALY": 166.739, "EPHEMERIS_TYPE": 0, "CLASSIFICATION_TYPE": "U", "NORAD_CAT_ID": 66709, "ELEMENT_SET_NO": 999, "REV_AT_EPOCH": 417, "BSTAR": 0.00046130505, "MEAN_MOTION_DOT": 9.306e-05, "MEAN_MOTION_DDOT": 0}, "tle": {"line1": "1 66709U 25276AV  25360.24829834  .00009306  00000+0  46131-3 0  9991", "line2": "2 66709  97.4425  71.8078 0002888 193.3768 166.7390 15.17956688  4175"}}, "geometry": {"type": "Point", "coordinates": [-101.4103251955555, 40.59861422213777]}}, {"type": "Feature", "properties": {"norad_id": 66710, "name": "FLOCK 4H-7", "group": "last-30-days", "lat": 81.98691052393005, "lon": -39.74929715917585, "alt_km": 506.53510028528854, "timestamp": "2025-12-26T14:28:46.395108+00:00", "meta": {"OBJECT_NAME": "FLOCK 4H-7", "OBJECT_ID": "2025-276AW", "EPOCH": "2025-12-26T06:09:31.367520", "MEAN_MOTION": 15.17526191, "ECCENTRICITY": 9.987e-05, "INCLINATION": 97.4383, "RA_OF_ASC_NODE": 71.7742, "ARG_OF_PERICENTER": 264.1353, "MEAN_ANOMALY": 95.9767, "EPHEMERIS_TYPE": 0, "CLASSIFICATION_TYPE": "U", "NORAD_CAT_ID": 66710, "ELEMENT_SET_NO": 999, "REV_AT_EPOCH": 417, "BSTAR": 0.00028152906, "MEAN_MOTION_DOT": 5.581e-05, "MEAN_MOTION_DDOT": 0}, "tle": {"line1": "1 66710U 25276AW  25360.25661305  .00005581  00000+0  28153-3 0  9996", "line2": "2 66710  97.4383  71.7742 0000998 264.1353  95.9767 15.17526191  4177"}}, "geometry": {"type": "Point", "coordinates": [-39.74929715917585, 81.98691052393005]}}, {"type": "Feature", "properties": {"norad_id": 66711, "name": "FLOCK 4H-8", "group": "last-30-days", "lat": 82.36165030775504, "lon": -30.77084493598688, "alt_km": 507.2985202404161, "timestamp": "2025-12-26T14:28:46.395121+00:00", "meta": {"OBJECT_NAME": "FLOCK 4H-8", "OBJECT_ID": "2025-276AX", "EPOCH": "2025-12-26T06:00:02.999808", "MEAN_MOTION": 15.17549648, "ECCENTRICITY": 0.00023161, "INCLINATION": 97.4424, "RA_OF_ASC_NODE": 71.79, "ARG_OF_PERICENTER": 250.1323, "MEAN_ANOMALY": 72.7829, "EPHEMERIS_TYPE": 0, "CLASSIFICATION_TYPE": "U", "NORAD_CAT_ID": 66711, "ELEMENT_SET_NO": 999, "REV_AT_EPOCH": 217, "BSTAR": -0.0010376616, "MEAN_MOTION_DOT": -0.00020819, "MEAN_MOTION_DDOT": 0}, "tle": {"line1": "1 66711U 25276AX  25360.25003472 -.00020819  00000+0 -10377-2 0  9993", "line2": "2 66711  97.4424  71.7900 0002316 250.1323  72.7829 15.17549648  2170"}}, "geometry": {"type": "Point", "coordinates": [-30.77084493598688, 82.36165030775504]}}, {"type": "Feature", "properties": {"norad_id": 66712, "name": "FLOCK 4H-9", "group": "last-30-days", "lat": 41.57005008490762, "lon": -101.18915489963848, "alt_km": 507.76066863895903, "timestamp": "2025-12-26T14:28:46.395133+00:00", "meta": {"OBJECT_NAME": "FLOCK 4H-9", "OBJECT_ID": "2025-276AY", "EPOCH": "2025-12-26T05:57:48.481920", "MEAN_MOTION": 15.17960263, "ECCENTRICITY": 0.00029435, "INCLINATION": 97.4416, "RA_OF_ASC_NODE": 71.805, "ARG_OF_PERICENTER": 201.2638, "MEAN_ANOMALY": 158.8474, "EPHEMERIS_TYPE": 0, "CLASSIFICATION_TYPE": "U", "NORAD_CAT_ID": 66712, "ELEMENT_SET_NO": 999, "REV_AT_EPOCH": 417, "BSTAR": 0.00033386691, "MEAN_MOTION_DOT": 6.715e-05, "MEAN_MOTION_DDOT": 0}, "tle": {"line1": "1 66712U 25276AY  25360.24847780  .00006715  00000+0  33387-3 0  9995", "line2": "2 66712  97.4416  71.8050 0002943 201.2638 158.8474 15.17960263  4175"}}, "geometry": {"type": "Point", "coordinates": [-101.18915489963848, 41.57005008490762]}}, {"type": "Feature", "properties": {"norad_id": 66713, "name": "FLOCK 4H-10", "group": "last-30-days", "lat": 69.9757619253085, "lon": 51.10320618592793, "alt_km": 509.4766585736588, "timestamp": "2025-12-26T14:28:46.395146+00:00", "meta": {"OBJECT_NAME": "FLOCK 4H-10", "OBJECT_ID": "2025-276AZ", "EPOCH": "2025-12-26T03:05:12.564960", "MEAN_MOTION": 15.17318474, "ECCENTRICITY": 0.00034842, "INCLINATION": 97.4389, "RA_OF_ASC_NODE": 71.6458, "ARG_OF_PERICENTER": 236.8942, "MEAN_ANOMALY": 123.1958, "EPHEMERIS_TYPE": 0, "CLASSIFICATION_TYPE": "U", "NORAD_CAT_ID": 66713, "ELEMENT_SET_NO": 999, "REV_AT_EPOCH": 415, "BSTAR": 0.00035826706, "MEAN_MOTION_DOT": 7.08e-05, "MEAN_MOTION_DDOT": 0}, "tle": {"line1": "1 66713U 25276AZ  25360.12861765  .00007080  00000+0  35827-3 0  9999", "line2": "2 66713  97.4389  71.6458 0003484 236.8942 123.1958 15.17318474  4159"}}, "geometry": {"type": "Point", "coordinates": [51.10320618592793, 69.9757619253085]}}, {"type": "Feature", "properties": {"norad_id": 66714, "name": "FLOCK 4H-11", "group": "last-30-days", "lat": 71.27002730759816, "lon": -85.1893238811377, "alt_km": 506.5695856863167, "timestamp": "2025-12-26T14:28:46.395169+00:00", "meta": {"OBJECT_NAME": "FLOCK 4H-11", "OBJECT_ID": "2025-276BA", "EPOCH": "2025-12-26T06:05:52.664928", "MEAN_MOTION": 15.17869916, "ECCENTRICITY": 0.00020192, "INCLINATION": 97.4408, "RA_OF_ASC_NODE": 71.7957, "ARG_OF_PERICENTER": 255.8995, "MEAN_ANOMALY": 104.2015, "EPHEMERIS_TYPE": 0, "CLASSIFICATION_TYPE": "U", "NORAD_CAT_ID": 66714, "ELEMENT_SET_NO": 999, "REV_AT_EPOCH": 417, "BSTAR": 0.00055553302, "MEAN_MOTION_DOT": 0.00011195, "MEAN_MOTION_DDOT": 0}, "tle": {"line1": "1 66714U 25276BA  25360.25408177  .00011195  00000+0  55553-3 0  9998", "line2": "2 66714  97.4408  71.7957 0002019 255.8995 104.2015 15.17869916  4177"}}, "geometry": {"type": "Point", "coordinates": [-85.1893238811377, 71.27002730759816]}}, {"type": "Feature", "properties": {"norad_id": 66715, "name": "FLOCK 4H-12", "group": "last-30-days", "lat": 28.109788396387092, "lon": -103.85795272957012, "alt_km": 508.9360474627174, "timestamp": "2025-12-26T14:28:46.395180+00:00", "meta": {"OBJECT_NAME": "FLOCK 4H-12", "OBJECT_ID": "2025-276BB", "EPOCH": "2025-12-26T05:54:16.858944", "MEAN_MOTION": 15.18118034, "ECCENTRICITY": 0.00022176, "INCLINATION": 97.4383, "RA_OF_ASC_NODE": 71.789, "ARG_OF_PERICENTER": 173.7567, "MEAN_ANOMALY": 186.3695, "EPHEMERIS_TYPE": 0, "CLASSIFICATION_TYPE": "U", "NORAD_CAT_ID": 66715, "ELEMENT_SET_NO": 999, "REV_AT_EPOCH": 448, "BSTAR": 0.00044626009, "MEAN_MOTION_DOT": 9.042e-05, "MEAN_MOTION_DDOT": 0}, "tle": {"line1": "1 66715U 25276BB  25360.24602846  .00009042  00000+0  44626-3 0  9994", "line2": "2 66715  97.4383  71.7890 0002217 173.7567 186.3695 15.18118034  4487"}}, "geometry": {"type": "Point", "coordinates": [-103.85795272957012, 28.109788396387092]}}, {"type": "Feature", "properties": {"norad_id": 66716, "name": "FLOCK 4H-13", "group": "last-30-days", "lat": 15.306368130517226, "lon": -105.78709830815004, "alt_km": 510.8517822497233, "timestamp": "2025-12-26T14:28:46.395191+00:00", "meta": {"OBJECT_NAME": "FLOCK 4H-13", "OBJECT_ID": "2025-276BC", "EPOCH": "2025-12-26T00:00:02.000160", "MEAN_MOTION": 15.18218609, "ECCENTRICITY": 0.00019025, "INCLINATION": 97.4419, "RA_OF_ASC_NODE": 71.5693, "ARG_OF_PERICENTER": 138.07, "MEAN_ANOMALY": 331.0846, "EPHEMERIS_TYPE": 0, "CLASSIFICATION_TYPE": "U", "NORAD_CAT_ID": 66716, "ELEMENT_SET_NO": 999, "REV_AT_EPOCH": 258, "BSTAR": 0.0014351767, "MEAN_MOTION_DOT": 0.00029392, "MEAN_MOTION_DDOT": 0}, "tle": {"line1": "1 66716U 25276BC  25360.00002315  .00029392  00000+0  14352-2 0  9996", "line2": "2 66716  97.4419  71.5693 0001902 138.0700 331.0846 15.18218609  2585"}}, "geometry": {"type": "Point", "coordinates": [-105.78709830815004, 15.306368130517226]}}]}